[{"OBJECT_NAME":"STARLINK-2550","OBJECT_ID":"2021-036T","EPOCH":"2026-03-09T08:01:50.000736","MEAN_MOTION":15.30213398,"ECCENTRICITY":0.00014405,"INCLINATION":53.1614,"RA_OF_ASC_NODE":77.0573,"ARG_OF_PERICENTER":84.7254,"MEAN_ANOMALY":275.3911,"EPHEMERIS_TYPE":0,"CLASSIFICATION_TYPE":"U","NORAD_CAT_ID":48293,"ELEMENT_SET_NO":999,"REV_AT_EPOCH":26835,"BSTAR":0.00037817273,"MEAN_MOTION_DOT":0.00010862,"MEAN_MOTION_DDOT":0},{"OBJECT_NAME":"AL MUNTHER","OBJECT_ID":"2025-052AG","EPOCH":"2026-03-09T15:29:23.207136","MEAN_MOTION":15.28381521,"ECCENTRICITY":0.0008027,"INCLINATION":97.4001,"RA_OF_ASC_NODE":323.9152,"ARG_OF_PERICENTER":130.7043,"MEAN_ANOMALY":229.4895,"EPHEMERIS_TYPE":0,"CLASSIFICATION_TYPE":"U","NORAD_CAT_ID":63240,"ELEMENT_SET_NO":999,"REV_AT_EPOCH":5479,"BSTAR":0.00065015,"MEAN_MOTION_DOT":0.00017933,"MEAN_MOTION_DDOT":0}]
